OBJECT_NAME,OBJECT_ID,EPOCH,MEAN_MOTION,ECCENTRICITY,INCLINATION,RA_OF_ASC_NODE,ARG_OF_PERICENTER,MEAN_ANOMALY,EPHEMERIS_TYPE,CLASSIFICATION_TYPE,NORAD_CAT_ID,ELEMENT_SET_NO,REV_AT_EPOCH,BSTAR,MEAN_MOTION_DOT,MEAN_MOTION_DDOT
BEIDOU-3S IGSO-1S (C31),2015-019A,2026-07-02T19:12:21.705408,1.00680073,.00768606,49.1798,295.2769,219.1125,144.2493,0,U,40549,999,4123,0,-.19E-5,0
GPS BIIF-10 (PRN 08),2015-033A,2026-07-08T03:53:28.667040,2.00555165,.0115245,53.9664,266.2211,30.2806,330.4455,0,U,40730,999,8041,0,-.3E-7,0
BEIDOU-3S M2S (C58),2015-037A,2026-07-07T04:34:20.042400,1.86232412,.00092026,54.8517,301.3582,257.5406,102.3800,0,U,40748,999,7449,0,-.63E-6,0
BEIDOU-3S M1S (C57),2015-037B,2026-07-07T22:22:35.404608,1.86254825,.0002914,54.8477,301.3195,63.4133,296.6386,0,U,40749,999,7451,0,-.64E-6,0
GSAT0206 (GALILEO 10),2015-045B,2026-07-07T23:42:16.284672,1.70473579,.0001927,54.9404,221.0297,331.1596,28.9023,0,U,40890,999,6739,0,.82E-6,0
BEIDOU-3S IGSO-2S (C56),2015-053A,2026-07-07T15:54:18.417024,1.00255142,.0065957,49.1900,258.5391,192.8471,166.7469,0,U,40938,999,3955,0,-.11E-5,0
GPS BIIF-11 (PRN 10),2015-062A,2026-07-07T05:17:01.846464,2.00566969,.01125283,56.9729,30.0400,230.9250,128.1184,0,U,41019,999,7823,0,-.52E-6,0
GSAT-15 (GAGAN/PRN 139),2015-065A,2026-07-08T02:10:04.994112,1.00272410,.0003834,0.0216,279.6108,168.8806,323.5818,0,U,41028,999,3900,0,-.243E-5,0
GSAT0209 (GALILEO 12),2015-079A,2026-07-04T15:16:27.577056,1.70473787,.0005067,55.8369,100.7834,348.6925,11.3144,0,U,41174,999,6507,0,0,0
GSAT0208 (GALILEO 11),2015-079B,2026-07-07T04:52:33.492288,1.70473232,.0004195,55.8371,100.7098,13.7405,346.2886,0,U,41175,999,6553,0,-.3E-7,0
IRNSS-1E,2016-003A,2026-07-07T13:47:38.735232,1.00269196,.0019202,33.2771,59.4542,178.8949,5.8336,0,U,41241,999,3828,0,-.304E-5,0
GPS BIIF-12 (PRN 32),2016-007A,2026-07-07T19:27:01.216800,2.00575851,.0096584,55.5362,88.6419,247.6320,111.3781,0,U,41328,999,7625,0,-.23E-6,0
COSMOS 2514 (751),2016-008A,2026-07-06T23:51:30.945024,2.13102582,.00120346,65.0087,312.3272,200.2262,159.7396,0,U,41330,999,8104,0,-.47E-6,0
BEIDOU-2 IGSO-6 (C13),2016-021A,2026-06-26T02:38:38.671584,1.00258926,.0057558,60.2385,37.9495,231.0163,137.2672,0,U,41434,999,3757,0,-.145E-5,0
IRNSS-1G,2016-027A,2026-07-07T16:04:25.078080,1.00274910,.0005975,5.2447,97.0006,9.1698,190.2027,0,U,41469,999,3738,0,-.321E-5,0
GSAT0211 (GALILEO 14),2016-030A,2026-07-06T17:45:56.222784,1.70473798,.00031513,55.0912,221.1568,320.2571,39.7906,0,U,41549,999,6300,0,.78E-6,0
GSAT0210 (GALILEO 13),2016-030B,2026-07-07T14:01:03.910656,1.70473798,.000782,55.0891,221.1315,257.5040,102.4802,0,U,41550,999,6301,0,.81E-6,0
BEIDOU-2 G7 (C03),2016-037A,2026-07-08T02:47:38.889312,1.00265962,.0006395,1.7685,69.4673,6.2627,2.7126,0,U,41586,999,710,0,-.339E-5,0
EUTELSAT 117 WEST B (WAAS/PRN 131),2016-038B,2026-07-07T16:36:44.479008,1.00274900,.0000098,0.0043,194.6007,339.2111,244.0229,0,U,41589,999,3686,0,.3E-7,0
GSAT0207 (GALILEO 15),2016-069A,2026-07-06T02:28:06.929472,1.70473349,.00044338,55.5088,100.5629,341.1065,18.8968,0,U,41859,999,5972,0,0,0
GSAT0212 (GALILEO 16),2016-069B,2026-07-07T03:06:21.976128,1.70473650,.000438,55.5076,100.5296,9.6218,350.4046,0,U,41860,999,5999,0,-.3E-7,0
GSAT0213 (GALILEO 17),2016-069C,2026-07-06T07:45:43.314336,1.70474232,.00046289,55.5092,100.5598,315.4701,44.5123,0,U,41861,999,5984,0,0,0
GSAT0214 (GALILEO 18),2016-069D,2026-07-06T11:16:20.180064,1.70473830,.00038073,55.5080,100.5485,326.3091,33.6861,0,U,41862,999,5997,0,-.1E-7,0
SES-15 (WAAS/PRN 133),2017-026A,2026-07-08T03:17:02.359968,1.00266873,.0000472,0.0256,324.2596,129.4076,112.5308,0,U,42709,999,764,0,.75E-6,0
QZS-2 (QZSS/PRN 194),2017-028A,2026-07-07T11:47:25.543104,1.00278715,.07582327,39.3970,242.8544,269.5081,92.2444,0,U,42738,999,783,0,-.1E-5,0
QZS-3 (QZSS/PRN 199),2017-048A,2026-07-08T00:36:58.071168,1.00275954,.0002602,0.0785,221.5939,258.8628,301.7432,0,U,42917,999,3246,0,-.333E-5,0
COSMOS 2522 (752),2017-055A,2026-07-06T08:42:02.433888,2.13102015,.0010922,64.0804,191.2316,240.7707,119.1473,0,U,42939,999,6838,0,.112E-5,0
QZS-4 (QZSS/PRN 195),2017-062A,2026-07-07T07:30:59.551200,1.00292859,.07472333,40.0971,343.2309,268.3911,285.0425,0,U,42965,999,3200,0,-.308E-5,0
BEIDOU-3 M1 (C19),2017-069A,2026-07-07T00:00:36.629280,1.86231364,.00095148,56.7085,62.4329,327.3765,32.6283,0,U,43001,999,5897,0,-.42E-6,0
BEIDOU-3 M2 (C20),2017-069B,2026-07-06T22:32:28.510368,1.86231060,.00085921,56.7078,62.4704,355.0487,5.0065,0,U,43002,999,5896,0,-.42E-6,0
GSAT0215 (GALILEO 19),2017-079A,2026-07-04T14:42:42.306624,1.70474500,.000355,55.0696,221.0270,263.9168,96.1170,0,U,43055,999,5328,0,.74E-6,0
